#aV2009 10 21  0  0   .00000000      96 DD+AD WGS84 FIT  NGA
## 1554 259200.00000000   900.00000000 55125  .0000000000000
+   32     1  2  3  4  5  6  7  8  9 10 11 12 13 14 15 16 17
+         18 19 20 21 22 23 24 25 26 27 28 29 30 31 32  0  0
+          0  0  0  0  0  0  0  0  0  0  0  0  0  0  0  0  0
+          0  0  0  0  0  0  0  0  0  0  0  0  0  0  0  0  0
+          0  0  0  0  0  0  0  0  0  0  0  0  0  0  0  0  0
++         0  0  0  0  0  0  0  0  0  0  0  0  0  0  0  0  0
++         0  0  0  0  0  0  0  0  0  0  0  0  0  0  0  0  0
++         0  0  0  0  0  0  0  0  0  0  0  0  0  0  0  0  0
++         0  0  0  0  0  0  0  0  0  0  0  0  0  0  0  0  0
++         0  0  0  0  0  0  0  0  0  0  0  0  0  0  0  0  0
%c cc cc ccc ccc cccc cccc cccc cccc ccccc ccccc ccccc ccccc
%c cc cc ccc ccc cccc cccc cccc cccc ccccc ccccc ccccc ccccc
%f  0.0000000  0.000000000  0.00000000000  0.000000000000000
%f  0.0000000  0.000000000  0.00000000000  0.000000000000000
%i    0    0    0    0      0      0      0      0         0
%i    0    0    0    0      0      0      0      0         0
/*      NGA, ST. LOUIS,MO.                                  
/*   EPHEMERIS COMPUTED FROM  3 DAYS OF DATA                
/* CCCCCCCCCCCCCCCCCCCCCCCCCCCCCCCCCCCCCCCCCCCCCCCCCCCCCCCCC
/* CCCCCCCCCCCCCCCCCCCCCCCCCCCCCCCCCCCCCCCCCCCCCCCCCCCCCCCCC
*  2009 10 21 22 15   .00000000                                                 
P  1 -15062.478304  -3783.915348  21455.117681    -61.280243                    
V  1   -339.968201 -27468.794094  -4959.209587      -.015234                    
P  2  -3584.797370 -17890.016699  19370.241238    183.307227                    
V  2  22392.641597  10458.888134  13328.839778       .038149                    
P  3   -985.245938  18799.817962 -18948.794088    463.819860                    
V  3 -19809.478915  12964.509821  14502.852416       .052251                    
P  4   9025.816565 -12786.376839  21319.981796   -321.913619                    
V  4  24012.872262  13390.866924  -1752.507469      -.178358                    
P  5  -3016.227651 -26127.030096  -3412.067363    -60.264776                    
V  5   2736.119367  -4396.748349  31416.476373       .083073                    
P  6  -6021.473083  19250.622418 -17053.968079    255.246351                    
V  6 -19642.150174  10436.585334  18614.665410       .037125                    
P  7  24039.757821   5278.630376 -10197.294298      9.175081                    
V  7  10231.590754   8081.643183  28194.860773      -.007257                    
P  8  17932.383067  -3692.554569 -19469.197728     -9.563070                    
V  8  20236.008172  13642.908336  15570.119816      -.321651                    
P  9 -20000.378344 -16027.530362  -7721.680858     84.278757                    
V  9   8806.614728   2290.898345 -30105.907034       .019998                    
P 10   -518.223405 -26356.469498   -838.445055    -26.435566                    
V 10   3265.657340   -873.765947  31853.192100      -.008795                    
P 11  23300.972501  11802.362176  -6006.157923    -25.378885                    
V 11  -8313.938700   2251.369768 -28588.273478      -.018112                    
P 12 -11391.066489 -17820.827077  16193.676753   -201.141312                    
V 12   1368.389593 -20418.551072 -21458.747554       .054328                    
P 13  23757.955172  -4398.107049  10924.538389    305.784642                    
V 13 -11701.753142   7860.309768  28271.411731       .003013                    
P 14 -21449.459560  14985.630840   4267.972470    -34.633413                    
V 14  -5578.727929    754.815509 -31816.035600       .049759                    
P 15  -5869.091130 -14308.984570 -21558.121562   -320.325995                    
V 15  23463.411689 -14287.963950   3168.850100      -.001786                    
P 16  -3021.324570  25909.683221   4282.656717       .005395                    
V 16  -2681.314833  -5422.981165  31487.499002      -.040531                    
P 17  20959.848973 -15581.762125   4271.329200     95.182908                    
V 17   6129.167578   -121.935008 -31239.891851       .034148                    
P 18 -15431.242803   3094.353022 -21110.739947     21.881436                    
V 18   -453.482841 -27517.100918  -4030.251497       .027534                    
P 19   7332.481953  13400.489272 -21688.615709      5.188242                    
V 19 -24698.954497  12426.744176   -399.945474      -.018339                    
P 20  13775.091563  13802.787144  17932.232976     69.447106                    
V 20   -793.864801  23131.036769 -17026.935145      -.008805                    
P 21 -23194.619964  -2152.101682 -13026.062867    -16.538156                    
V 21 -13352.903340 -10558.949013  24346.367294      -.023269                    
P 22 -12341.418111  16484.667549 -16565.319145    188.190449                    
V 22  -2083.580256 -21475.776128 -19697.824531      -.007832                    
P 23  17021.152789   5581.000994  19680.272768    387.175467                    
V 23 -20926.588351  13592.119280  13925.214855      -.005021                    
P 24 -22922.862429 -13060.254560  -1320.379588    230.376770                    
V 24    213.344848  -3827.581688  31630.358044       .029764                    
P 25  24682.709053   9225.209468  -2024.925373    639.539832                    
V 25   1689.677369   3623.952186  31982.978465       .134511                    
P 26 -24703.739704   9650.310620  -4527.939888      7.149786                    
V 26   3784.577192  -3496.034047 -31448.352794      -.015057                    
P 27 -18222.179950 -16176.858396  -9927.306965     93.313082                    
V 27  13207.245902   3873.979633 -28555.610604       .031672                    
P 28  12693.697692 -13846.341802 -18205.512098    -25.806074                    
V 28   1421.673833  24146.691660 -17270.990966       .001282                    
P 29 -22782.428509   2016.470973  13557.287173     67.942247                    
V 29  13755.062676 -10375.655760  24865.867550       .032220                    
P 30 -15095.762782  -5809.124740  20692.090045    186.777039                    
V 30   -926.986325 -27176.292091  -8094.979545       .031718                    
P 31  -6046.649974  13774.636823  22094.165613    -62.539125                    
V 31 -24189.337150 -13104.015836   1703.935159       .006371                    
P 32   8465.700123  21273.178912  14089.819952    173.377728                    
V 32  -2936.890502  16978.910710 -24253.770408      -.073668                    
EOF
